{"type": "FeatureCollection", "features": [ {"type": "Feature", "properties": {"norad_id": 66987, "name": "STARLINK-36147", "group": "last-30-days", "lat": 29.98463736047293, "lon": 171.30858474083902, "alt_km": 304.659494206061, "timestamp": "2025-12-18T07:01:53.343391+00:00", "meta": {"OBJECT_NAME": "STARLINK-36147", "OBJECT_ID": "2025-288AE", "EPOCH": "2025-12-16T14:00:03.000384", "MEAN_MOTION": 15.92698379, "ECCENTRICITY": 0.00016681, "INCLINATION": 43.0016, "RA_OF_ASC_NODE": 143.6583, "ARG_OF_PERICENTER": 265.3485, "MEAN_ANOMALY": 62.6556, "EPHEMERIS_TYPE": 0, "CLASSIFICATION_TYPE": "U", "NORAD_CAT_ID": 66987, "ELEMENT_SET_NO": 999, "REV_AT_EPOCH": 245, "BSTAR": -0.004457972, "MEAN_MOTION_DOT": -0.01584339, "MEAN_MOTION_DDOT": 0.00070644415}, "tle": {"line1": "1 66987U 25288AE  25350.58336806 -.01584339  70644-3 -44580-2 0  9997", "line2": "2 66987  43.0016 143.6583 0001668 265.3485  62.6556 15.92698379  2456"}}, "geometry": {"type": "Point", "coordinates": [171.30858474083902, 29.98463736047293]}}, {"type": "Feature", "properties": {"norad_id": 66988, "name": "YAOGAN-47", "group": "last-30-days", "lat": -6.033503682741921, "lon": -123.37602090050034, "alt_km": 500.3782473479496, "timestamp": "2025-12-18T07:01:53.343403+00:00", "meta": {"OBJECT_NAME": "YAOGAN-47", "OBJECT_ID": "2025-289A", "EPOCH": "2025-12-15T02:32:19.481856", "MEAN_MOTION": 15.23184629, "ECCENTRICITY": 7.87e-05, "INCLINATION": 97.5271, "RA_OF_ASC_NODE": 54.2297, "ARG_OF_PERICENTER": 67.3408, "MEAN_ANOMALY": 292.7912, "EPHEMERIS_TYPE": 0, "CLASSIFICATION_TYPE": "U", "NORAD_CAT_ID": 66988, "ELEMENT_SET_NO": 999, "REV_AT_EPOCH": 90, "BSTAR": 0.00011849353, "MEAN_MOTION_DOT": 2.729e-05, "MEAN_MOTION_DDOT": 0}, "tle": {"line1": "1 66988U 25289A   25349.10578104  .00002729  00000+0  11849-3 0  9997", "line2": "2 66988  97.5271  54.2297 0000787  67.3408 292.7912 15.23184629   901"}}, "geometry": {"type": "Point", "coordinates": [-123.37602090050034, -6.033503682741921]}}, {"type": "Feature", "properties": {"norad_id": 66989, "name": "CZ-4B R/B", "group": "last-30-days", "lat": 11.655231117475962, "lon": -120.39665437641882, "alt_km": 461.67175342391056, "timestamp": "2025-12-18T07:01:53.343416+00:00", "meta": {"OBJECT_NAME": "CZ-4B R/B", "OBJECT_ID": "2025-289B", "EPOCH": "2025-12-17T18:03:54.391968", "MEAN_MOTION": 15.68440211, "ECCENTRICITY": 0.01452268, "INCLINATION": 97.5265, "RA_OF_ASC_NODE": 57.4604, "ARG_OF_PERICENTER": 343.9473, "MEAN_ANOMALY": 15.7209, "EPHEMERIS_TYPE": 0, "CLASSIFICATION_TYPE": "U", "NORAD_CAT_ID": 66989, "ELEMENT_SET_NO": 999, "REV_AT_EPOCH": 135, "BSTAR": 0.00052850101, "MEAN_MOTION_DOT": 0.00108626, "MEAN_MOTION_DDOT": 5.606546e-06}, "tle": {"line1": "1 66989U 25289B   25351.75271287  .00108626  56065-5  52850-3 0  9992", "line2": "2 66989  97.5265  57.4604 0145226 343.9473  15.7209 15.68440211  1358"}}, "geometry": {"type": "Point", "coordinates": [-120.39665437641882, 11.655231117475962]}}, {"type": "Feature", "properties": {"norad_id": 66990, "name": "TJS-22", "group": "last-30-days", "lat": 8.985060216311364, "lon": -35.253281253655146, "alt_km": 30089.09417655449, "timestamp": "2025-12-18T07:01:53.343427+00:00", "meta": {"OBJECT_NAME": "TJS-22", "OBJECT_ID": "2025-290A", "EPOCH": "2025-12-10T07:11:32.845344", "MEAN_MOTION": 2.15443148, "ECCENTRICITY": 0.6664534, "INCLINATION": 20.1261, "RA_OF_ASC_NODE": 301.1464, "ARG_OF_PERICENTER": 180.6877, "MEAN_ANOMALY": 177.6237, "EPHEMERIS_TYPE": 0, "CLASSIFICATION_TYPE": "U", "NORAD_CAT_ID": 66990, "ELEMENT_SET_NO": 999, "REV_AT_EPOCH": 3, "BSTAR": 0.079788243, "MEAN_MOTION_DOT": -3.8e-07, "MEAN_MOTION_DDOT": 0}, "tle": {"line1": "1 66990U 25290A   25344.29968571 -.00000038  00000+0  79788-1 0  9994", "line2": "2 66990  20.1261 301.1464 6664534 180.6877 177.6237  2.15443148    32"}}, "geometry": {"type": "Point", "coordinates": [-35.253281253655146, 8.985060216311364]}}, {"type": "Feature", "properties": {"norad_id": 66991, "name": "CZ-3B R/B", "group": "last-30-days", "lat": 5.853514379443516, "lon": -49.66543514810984, "alt_km": 33350.021454683745, "timestamp": "2025-12-18T07:01:53.343439+00:00", "meta": {"OBJECT_NAME": "CZ-3B R/B", "OBJECT_ID": "2025-290B", "EPOCH": "2025-12-15T17:23:33.043200", "MEAN_MOTION": 2.38388611, "ECCENTRICITY": 0.7240884, "INCLINATION": 28.4636, "RA_OF_ASC_NODE": 300.4666, "ARG_OF_PERICENTER": 182.7002, "MEAN_ANOMALY": 168.625, "EPHEMERIS_TYPE": 0, "CLASSIFICATION_TYPE": "U", "NORAD_CAT_ID": 66991, "ELEMENT_SET_NO": 999, "REV_AT_EPOCH": 16, "BSTAR": 0.00075879, "MEAN_MOTION_DOT": 0.00057911, "MEAN_MOTION_DDOT": -2.0514e-07}, "tle": {"line1": "1 66991U 25290B   25349.72468800  .00057911 -20514-6  75879-3 0  9998", "line2": "2 66991  28.4636 300.4666 7240884 182.7002 168.6250  2.38388611   165"}}, "geometry": {"type": "Point", "coordinates": [-49.66543514810984, 5.853514379443516]}}, {"type": "Feature", "properties": {"norad_id": 66993, "name": "2025-292A", "group": "last-30-days", "lat": 4.74216113152165, "lon": -114.5701983646985, "alt_km": 553.1762235565884, "timestamp": "2025-12-18T07:01:53.343450+00:00", "meta": {"OBJECT_NAME": "2025-292A", "OBJECT_ID": "2025-292A", "EPOCH": "2025-12-17T20:40:38.138592", "MEAN_MOTION": 15.04531563, "ECCENTRICITY": 0.00138009, "INCLINATION": 97.6534, "RA_OF_ASC_NODE": 64.3634, "ARG_OF_PERICENTER": 253.4574, "MEAN_ANOMALY": 106.5136, "EPHEMERIS_TYPE": 0, "CLASSIFICATION_TYPE": "U", "NORAD_CAT_ID": 66993, "ELEMENT_SET_NO": 999, "REV_AT_EPOCH": 116, "BSTAR": 0.00024226766, "MEAN_MOTION_DOT": 3.339e-05, "MEAN_MOTION_DDOT": 0}, "tle": {"line1": "1 66993U 25292A   25351.86155253  .00003339  00000+0  24227-3 0  9991", "line2": "2 66993  97.6534  64.3634 0013800 253.4574 106.5136 15.04531563  1160"}}, "geometry": {"type": "Point", "coordinates": [-114.5701983646985, 4.74216113152165]}}, {"type": "Feature", "properties": {"norad_id": 66994, "name": "2025-292B", "group": "last-30-days", "lat": 3.4339621608214626, "lon": -114.74556568231824, "alt_km": 553.1158677070534, "timestamp": "2025-12-18T07:01:53.343460+00:00", "meta": {"OBJECT_NAME": "2025-292B", "OBJECT_ID": "2025-292B", "EPOCH": "2025-12-17T20:40:18.146496", "MEAN_MOTION": 15.04570934, "ECCENTRICITY": 0.00135695, "INCLINATION": 97.6543, "RA_OF_ASC_NODE": 64.3645, "ARG_OF_PERICENTER": 253.8039, "MEAN_ANOMALY": 106.1694, "EPHEMERIS_TYPE": 0, "CLASSIFICATION_TYPE": "U", "NORAD_CAT_ID": 66994, "ELEMENT_SET_NO": 999, "REV_AT_EPOCH": 116, "BSTAR": 0.00028475958, "MEAN_MOTION_DOT": 3.94e-05, "MEAN_MOTION_DDOT": 0}, "tle": {"line1": "1 66994U 25292B   25351.86132114  .00003940  00000+0  28476-3 0  9991", "line2": "2 66994  97.6543  64.3645 0013569 253.8039 106.1694 15.04570934  1165"}}, "geometry": {"type": "Point", "coordinates": [-114.74556568231824, 3.4339621608214626]}}, {"type": "Feature", "properties": {"norad_id": 66995, "name": "2025-292C", "group": "last-30-days", "lat": 3.1574219743916316, "lon": -114.78363065868251, "alt_km": 553.037943820641, "timestamp": "2025-12-18T07:01:53.343470+00:00", "meta": {"OBJECT_NAME": "2025-292C", "OBJECT_ID": "2025-292C", "EPOCH": "2025-12-17T20:40:14.213568", "MEAN_MOTION": 15.04596066, "ECCENTRICITY": 0.00138609, "INCLINATION": 97.6533, "RA_OF_ASC_NODE": 64.3638, "ARG_OF_PERICENTER": 254.1591, "MEAN_ANOMALY": 105.8107, "EPHEMERIS_TYPE": 0, "CLASSIFICATION_TYPE": "U", "NORAD_CAT_ID": 66995, "ELEMENT_SET_NO": 999, "REV_AT_EPOCH": 116, "BSTAR": 0.00032308476, "MEAN_MOTION_DOT": 4.483e-05, "MEAN_MOTION_DDOT": 0}, "tle": {"line1": "1 66995U 25292C   25351.86127562  .00004483  00000+0  32308-3 0  9995", "line2": "2 66995  97.6533  64.3638 0013860 254.1591 105.8107 15.04596066  1167"}}, "geometry": {"type": "Point", "coordinates": [-114.78363065868251, 3.1574219743916316]}}, {"type": "Feature", "properties": {"norad_id": 66996, "name": "2025-292D", "group": "last-30-days", "lat": 1.7711816969354044, "lon": -114.97037972343131, "alt_km": 553.4644935945962, "timestamp": "2025-12-18T07:01:53.343482+00:00", "meta": {"OBJECT_NAME": "2025-292D", "OBJECT_ID": "2025-292D", "EPOCH": "2025-12-17T20:39:52.982496", "MEAN_MOTION": 15.04630605, "ECCENTRICITY": 0.00130352, "INCLINATION": 97.6527, "RA_OF_ASC_NODE": 64.3636, "ARG_OF_PERICENTER": 256.8674, "MEAN_ANOMALY": 103.1097, "EPHEMERIS_TYPE": 0, "CLASSIFICATION_TYPE": "U", "NORAD_CAT_ID": 66996, "ELEMENT_SET_NO": 999, "REV_AT_EPOCH": 116, "BSTAR": 0.00019907174, "MEAN_MOTION_DOT": 2.739e-05, "MEAN_MOTION_DDOT": 0}, "tle": {"line1": "1 66996U 25292D   25351.86102989  .00002739  00000+0  19907-3 0  9994", "line2": "2 66996  97.6527  64.3636 0013035 256.8674 103.1097 15.04630605  1161"}}, "geometry": {"type": "Point", "coordinates": [-114.97037972343131, 1.7711816969354044]}}, {"type": "Feature", "properties": {"norad_id": 66997, "name": "2025-292E", "group": "last-30-days", "lat": -0.542892420340817, "lon": -115.27864531016438, "alt_km": 553.2260870366563, "timestamp": "2025-12-18T07:01:53.343495+00:00", "meta": {"OBJECT_NAME": "2025-292E", "OBJECT_ID": "2025-292E", "EPOCH": "2025-12-17T20:39:17.700192", "MEAN_MOTION": 15.04714812, "ECCENTRICITY": 0.0013395, "INCLINATION": 97.6548, "RA_OF_ASC_NODE": 64.366, "ARG_OF_PERICENTER": 257.7575, "MEAN_ANOMALY": 102.2151, "EPHEMERIS_TYPE": 0, "CLASSIFICATION_TYPE": "U", "NORAD_CAT_ID": 66997, "ELEMENT_SET_NO": 999, "REV_AT_EPOCH": 115, "BSTAR": 0.00024240153, "MEAN_MOTION_DOT": 3.357e-05, "MEAN_MOTION_DDOT": 0}, "tle": {"line1": "1 66997U 25292E   25351.86062153  .00003357  00000+0  24240-3 0  9996", "line2": "2 66997  97.6548  64.3660 0013395 257.7575 102.2151 15.04714812  1154"}}, "geometry": {"type": "Point", "coordinates": [-115.27864531016438, -0.542892420340817]}}]}